ONEWEB-0389             
1 50469U 21132A   25335.23310973 -.00000113  00000+0 -32344-3 0  9994
2 50469  87.9132  45.2344 0001588 114.0231 246.1067 13.17648299192011
ONEWEB-0390             
1 50470U 21132B   25335.23480671  .00000121  00000+0  27932-3 0  9993
2 50470  87.9123  45.2370 0001560  94.2965 265.8345 13.17647733192014
ONEWEB-0391             
1 50471U 21132C   25335.23649067  .00000097  00000+0  21763-3 0  9998
2 50471  87.9121  45.2462 0001051 125.1552 234.9679 13.17648058192014
ONEWEB-0392             
1 50472U 21132D   25335.19092813  .00000152  00000+0  35945-3 0  9994
2 50472  87.9129  45.2067 0001497 112.9621 247.1669 13.17647424192043
ONEWEB-0393             
1 50473U 21132E   25335.23999624 -.00000234  00000+0 -63467-3 0  9999
2 50473  87.9133  45.2188 0001633 107.7820 252.3490 13.17648406192049
ONEWEB-0394             
1 50474U 21132F   25335.13605115  .00000083  00000+0  17872-3 0  9997
2 50474  87.9196  14.7751 0001741 102.2930 257.8397 13.18685236195499
ONEWEB-0395             
1 50475U 21132G   25335.25321238  .00000097  00000+0  23899-3 0  9993
2 50475  87.8862  60.4926 0001415 101.6394 258.4893 13.11415225189770
ONEWEB-0396             
1 50476U 21132H   25335.12945181  .00000076  00000+0  16118-3 0  9992
2 50476  87.9197  14.7889 0001769 100.2656 259.8676 13.18685139195536
ONEWEB-0397             
1 50477U 21132J   25335.14430241  .00000087  00000+0  18701-3 0  9993
2 50477  87.9194  14.7860 0001880 103.1148 257.0194 13.18686188195513
ONEWEB-0398             
1 50478U 21132K   25335.22100543  .00000469  00000+0  12866-2 0  9991
2 50478  87.8873  60.4711 0001414  92.6466 267.4823 13.11418747189668
ONEWEB-0399             
1 50479U 21132L   25335.20743831 -.00000133  00000+0 -41139-3 0  9999
2 50479  87.8864  60.4884 0001616 122.6439 237.4845 13.11419022189655
ONEWEB-0400             
1 50480U 21132M   25335.12285521  .00000058  00000+0  11524-3 0  9998
2 50480  87.9193  14.7803 0001694  91.2454 268.8873 13.18685588195509
ONEWEB-0401             
1 50481U 21132N   25335.16738643  .00000092  00000+0  20083-3 0  9999
2 50481  87.9192  14.7682 0001984  99.5625 260.5732 13.18684071195517
ONEWEB-0402             
1 50482U 21132P   25335.13110262  .00000060  00000+0  11881-3 0  9999
2 50482  87.9194  14.7679 0002403 102.6837 257.4564 13.18684979195531
ONEWEB-0403             
1 50483U 21132Q   25335.15584052  .00000117  00000+0  26400-3 0  9990
2 50483  87.9193  14.7841 0001697  98.2809 261.8516 13.18684331195498
ONEWEB-0404             
1 50484U 21132R   25335.26507139 -.00000435  00000+0 -12633-2 0  9991
2 50484  87.8864  60.4861 0001414 115.1943 244.9331 13.11417327189759
ONEWEB-0405             
1 50485U 21132S   25335.17068388  .00000077  00000+0  16189-3 0  9991
2 50485  87.9192  14.7655 0001981 103.4379 256.6974 13.18684383195890
ONEWEB-0406             
1 50486U 21132T   25335.16079420  .00000048  00000+0  89051-4 0  9997
2 50486  87.9195  14.7916 0001236  94.8566 265.2707 13.18684402195520
ONEWEB-0407             
1 50487U 21132U   25335.15419111  .00000113  00000+0  25389-3 0  9998
2 50487  87.9194  14.7772 0001960  95.0281 265.1075 13.18684332195463
ONEWEB-0409             
1 50488U 21132V   25335.26337890 -.00000409  00000+0 -11896-2 0  9991
2 50488  87.8879  60.4535 0001280 108.8907 251.2360 13.11417889189641
ONEWEB-0412             
1 50489U 21132W   25335.14264863  .00000110  00000+0  24572-3 0  9991
2 50489  87.9195  14.7922 0002100 102.5792 257.5576 13.18685369195553
ONEWEB-0413             
1 50490U 21132X   25335.14760256  .00000107  00000+0  23899-3 0  9997
2 50490  87.9185  14.8051 0002135  98.7413 261.3961 13.18687127195490
ONEWEB-0414             
1 50491U 21132Y   25335.13275091  .00000071  00000+0  14754-3 0  9995
2 50491  87.9196  14.7704 0001899 103.2630 256.8714 13.18685555195528
ONEWEB-0417             
1 50492U 21132Z   25335.14099893  .00000091  00000+0  19866-3 0  9992
2 50492  87.9197  14.8025 0001586  97.7548 262.3764 13.18685240195501
ONEWEB-0418             
1 50493U 21132AA  25335.15074421  .00000108  00000+0  24150-3 0  9995
2 50493  87.9194  14.7851 0001323 104.1969 255.9310 13.18684028195568
ONEWEB-0419             
1 50494U 21132AB  25335.16904011  .00000076  00000+0  16097-3 0  9999
2 50494  87.9192  14.7816 0001486  91.4326 268.6976 13.18685099195482
ONEWEB-0420             
1 50495U 21132AC  25335.13438891  .00000057  00000+0  11194-3 0  9997
2 50495  87.9197  14.8002 0001960  95.4241 264.7115 13.18689336195472
ONEWEB-0421             
1 50496U 21132AD  25335.12779278  .00000101  00000+0  22315-3 0  9991
2 50496  87.9196  14.7945 0001966 105.0561 255.0789 13.18684584195511
ONEWEB-0424             
1 50497U 21132AE  25335.16410086 -.00000977  00000+0 -25111-2 0  9994
2 50497  87.9196  14.7830 0001445  85.4319 274.6978 13.18674055195541
ONEWEB-0426             
1 50498U 21132AF  25335.12449955  .00000066  00000+0  13388-3 0  9999
2 50498  87.9195  14.7820 0001798 119.3341 240.7971 13.18685917195482
ONEWEB-0427             
1 50499U 21132AG  25335.16244705  .00000076  00000+0  15899-3 0  9990
2 50499  87.9190  14.7620 0001536  97.6641 262.4665 13.18685782195512
ONEWEB-0429             
1 50500U 21132AH  25335.14924503  .00000090  00000+0  19479-3 0  9996
2 50500  87.9195  14.7968 0001926  93.4949 266.6403 13.18684900195486
ONEWEB-0430             
1 50501U 21132AJ  25335.13770046  .00000121  00000+0  27439-3 0  9997
2 50501  87.9197  14.7946 0001789  88.0652 272.0685 13.18685601195520
ONEWEB-0432             
1 50502U 21132AK  25335.16953935  .00000075  00000+0  15831-3 0  9992
2 50502  87.9188  14.7609 0000892  87.5693 272.5541 13.18675720195482
ONEWEB-0440             
1 50503U 21132AL  25335.15749124  .00000086  00000+0  18448-3 0  9994
2 50503  87.9194  14.7806 0002181 101.6270 258.5107 13.18684015195479
ONEWEB-0450             
1 50504U 21132AM  25335.15103841  .00000175  00000+0  41191-3 0  9995
2 50504  87.9191  14.8044 0001987  90.2139 269.9221 13.18687026195504
ONEWEB-0410             
1 51622U 22012A   25335.25168148  .00000112  00000+0  25621-3 0  9998
2 51622  87.9133  45.2018 0001385 155.8026 204.3171 13.17647833187639
ONEWEB-0411             
1 51623U 22012B   25335.24706154 -.00000496  00000+0 -14572-2 0  9992
2 51623  87.8814  75.7252 0001538  83.7665 276.3638 13.10375273183363
ONEWEB-0415             
1 51624U 22012C   25335.24374535 -.00000507  00000+0 -14890-2 0  9993
2 51624  87.8812  75.7284 0001508  93.1025 267.0275 13.10374621183369
ONEWEB-0416             
1 51625U 22012D   25335.25537677  .00000110  00000+0  27875-3 0  9999
2 51625  87.8818  75.7468 0001510 102.8456 257.2840 13.10375889183400
ONEWEB-0422             
1 51626U 22012E   25335.18587407  .00000134  00000+0  31220-3 0  9993
2 51626  87.9131  45.2189 0002426  97.4704 262.6703 13.17648420187733
ONEWEB-0423             
1 51627U 22012F   25335.25505960  .00000135  00000+0  31381-3 0  9995
2 51627  87.9130  45.2150 0001860 104.1289 256.0049 13.17648417187631
ONEWEB-0425             
1 51628U 22012G   25335.26534511  .00000535  00000+0  14949-2 0  9995
2 51628  87.8820  75.7153 0001501 116.6939 243.4343 13.10374304183402
ONEWEB-0428             
1 51629U 22012H   25335.24539849 -.00000396  00000+0 -11711-2 0  9994
2 51629  87.8813  75.7384 0001663 103.5811 256.5501 13.10373876183363
ONEWEB-0431             
1 51630U 22012J   25335.29175470  .00000170  00000+0  45194-3 0  9998
2 51630  87.8817  75.7081 0001742  82.0328 278.0997 13.10369383183428
ONEWEB-0434             
1 51631U 22012K   25335.26866300  .00000645  00000+0  18127-2 0  9997
2 51631  87.8811  75.7496 0001575 127.0639 233.0633 13.10374412183407
ONEWEB-0435             
1 51632U 22012L   25335.27696803  .00000699  00000+0  19658-2 0  9997
2 51632  87.8809  75.7379 0002017  99.9477 260.1878 13.10371830183395
ONEWEB-0436             
1 51633U 22012M   25335.24662258  .00000088  00000+0  19464-3 0  9990
2 51633  87.9130  45.1952 0001921  96.6713 263.4637 13.17648528187618
ONEWEB-0438             
1 51634U 22012N   25335.26034293  .00000364  00000+0  10075-2 0  9990
2 51634  87.8811  75.7419 0001528 110.2323 249.8968 13.10374005183423
ONEWEB-0439             
1 51635U 22012P   25335.26368560  .00000458  00000+0  12745-2 0  9998
2 51635  87.8810  75.7301 0001700 104.8612 255.2704 13.10375398183408
ONEWEB-0442             
1 51636U 22012Q   25335.23902578  .00000052  00000+0  10149-3 0  9996
2 51636  87.9121  45.2454 0001301 118.0696 242.0568 13.17648618187605
ONEWEB-0443             
1 51637U 22012R   25335.25843285  .00000117  00000+0  26905-3 0  9997
2 51637  87.9115  45.2472 0001849 111.8402 248.2926 13.17648440187656
ONEWEB-0444             
1 51638U 22012S   25335.25370528 -.00000269  00000+0 -80604-3 0  9999
2 51638  87.8811  75.7306 0001672 104.3185 255.8128 13.10375752183416
ONEWEB-0445             
1 51639U 22012T   25335.27530785  .00000707  00000+0  19888-2 0  9995
2 51639  87.8825  75.6919 0001422 101.8904 258.2383 13.10373077183424
ONEWEB-0446             
1 51640U 22012U   25335.25206757 -.00000079  00000+0 -26177-3 0  9998
2 51640  87.8811  75.7480 0001454  99.1993 260.9299 13.10377248183405
ONEWEB-0448             
1 51641U 22012V   25335.25705359  .00000191  00000+0  50946-3 0  9995
2 51641  87.8811  75.7464 0001653 104.8917 255.2393 13.10378253183374
ONEWEB-0449             
1 51642U 22012W   25335.26202305  .00000454  00000+0  12628-2 0  9996
2 51642  87.8819  75.7169 0001571 121.5637 238.5644 13.10375630183389
ONEWEB-0451             
1 51643U 22012X   25335.24324026  .00000186  00000+0  44553-3 0  9995
2 51643  87.9128  45.1909 0001736 105.9827 254.1496 13.17649059187599
ONEWEB-0452             
1 51644U 22012Y   25335.24155575  .00000166  00000+0  39322-3 0  9993
2 51644  87.9121  45.2470 0001855 110.0180 250.1152 13.17647567187607
